IRIDIUM 7               
1 24793U 97020B   25243.57533778  .00000575  00000+0  19138-3 0  9995
2 24793  86.4010 145.3546 0001899  90.1958 269.9456 14.35987518482717
IRIDIUM 5               
1 24795U 97020D   25243.49562376  .00008296  00000+0  67719-3 0  9990
2 24795  86.3865  48.9649 0106015 227.1316 132.0975 14.94906287496714
IRIDIUM 4               
1 24796U 97020E   25243.44188591  .00000503  00000+0  16362-3 0  9990
2 24796  86.4000 142.2405 0002017  84.6020 275.5408 14.36887445483271
IRIDIUM 914             
1 24836U 97030A   25243.23437196  .00000644  00000+0  19458-3 0  9996
2 24836  86.3996 150.7013 0002143  41.7799 318.3564 14.40928755617931
IRIDIUM 16              
1 24841U 97030F   25243.51561127  .00000658  00000+0  20789-3 0  9999
2 24841  86.4104 173.6576 0003058 131.5950 228.5511 14.38762940477836
IRIDIUM 911             
1 24842U 97030G   25243.52709712  .00000981  00000+0  26032-3 0  9991
2 24842  86.4528 172.3424 0013119 197.9819 162.0922 14.47715198485980
IRIDIUM 17              
1 24870U 97034B   25243.40994926  .00000782  00000+0  25268-3 0  9995
2 24870  86.3991 203.1274 0003666 104.3495 255.8110 14.37882651474399
IRIDIUM 920             
1 24871U 97034C   25243.53712562  .00000805  00000+0  24125-3 0  9991
2 24871  86.4040 182.1549 0011098 182.0112 178.1045 14.41591033477432
